{"type": "FeatureCollection", "features": [ {"type": "Feature", "properties": {"norad_id": 42987, "name": "SKYSAT-C11", "group": "resource", "lat": 2.989765487999236, "lon": -48.98002207868844, "alt_km": 426.0054212322657, "timestamp": "2025-12-18T23:35:48.704718+00:00", "meta": {"OBJECT_NAME": "SKYSAT-C11", "OBJECT_ID": "2017-068A", "EPOCH": "2025-12-18T08:52:11.325792", "MEAN_MOTION": 15.47682257, "ECCENTRICITY": 0.00011634, "INCLINATION": 97.4139, "RA_OF_ASC_NODE": 130.0014, "ARG_OF_PERICENTER": 100.4985, "MEAN_ANOMALY": 259.6396, "EPHEMERIS_TYPE": 0, "CLASSIFICATION_TYPE": "U", "NORAD_CAT_ID": 42987, "ELEMENT_SET_NO": 999, "REV_AT_EPOCH": 45518, "BSTAR": 0.00039688068, "MEAN_MOTION_DOT": 0.00020446, "MEAN_MOTION_DDOT": 0}, "tle": {"line1": "1 42987U 17068A   25352.36957553  .00020446  00000+0  39688-3 0  9994", "line2": "2 42987  97.4139 130.0014 0001163 100.4985 259.6396 15.47682257455182"}}, "geometry": {"type": "Point", "coordinates": [-48.98002207868844, 2.989765487999236]}}, {"type": "Feature", "properties": {"norad_id": 42988, "name": "SKYSAT-C10", "group": "resource", "lat": -82.54539812378441, "lon": -150.73698011743738, "alt_km": 480.35225930345314, "timestamp": "2025-12-18T23:35:48.704728+00:00", "meta": {"OBJECT_NAME": "SKYSAT-C10", "OBJECT_ID": "2017-068B", "EPOCH": "2025-12-18T08:18:46.449216", "MEAN_MOTION": 15.32180666, "ECCENTRICITY": 0.00054364, "INCLINATION": 97.4258, "RA_OF_ASC_NODE": 123.2129, "ARG_OF_PERICENTER": 87.9397, "MEAN_ANOMALY": 272.2467, "EPHEMERIS_TYPE": 0, "CLASSIFICATION_TYPE": "U", "NORAD_CAT_ID": 42988, "ELEMENT_SET_NO": 999, "REV_AT_EPOCH": 45465, "BSTAR": 0.00031057923, "MEAN_MOTION_DOT": 9.577e-05, "MEAN_MOTION_DDOT": 0}, "tle": {"line1": "1 42988U 17068B   25352.34637094  .00009577  00000+0  31058-3 0  9993", "line2": "2 42988  97.4258 123.2129 0005436  87.9397 272.2467 15.32180666454651"}}, "geometry": {"type": "Point", "coordinates": [-150.73698011743738, -82.54539812378441]}}, {"type": "Feature", "properties": {"norad_id": 42989, "name": "SKYSAT-C9", "group": "resource", "lat": -27.872851246320593, "lon": -60.66529031968851, "alt_km": 468.81733347623594, "timestamp": "2025-12-18T23:35:48.704738+00:00", "meta": {"OBJECT_NAME": "SKYSAT-C9", "OBJECT_ID": "2017-068C", "EPOCH": "2025-12-18T08:37:30.494208", "MEAN_MOTION": 15.36192107, "ECCENTRICITY": 0.00105708, "INCLINATION": 97.419, "RA_OF_ASC_NODE": 122.6576, "ARG_OF_PERICENTER": 69.7595, "MEAN_ANOMALY": 290.4785, "EPHEMERIS_TYPE": 0, "CLASSIFICATION_TYPE": "U", "NORAD_CAT_ID": 42989, "ELEMENT_SET_NO": 999, "REV_AT_EPOCH": 45494, "BSTAR": 0.00034311574, "MEAN_MOTION_DOT": 0.00012046, "MEAN_MOTION_DDOT": 0}, "tle": {"line1": "1 42989U 17068C   25352.35938072  .00012046  00000+0  34312-3 0  9996", "line2": "2 42989  97.4190 122.6576 0010570  69.7595 290.4785 15.36192107454943"}}, "geometry": {"type": "Point", "coordinates": [-60.66529031968851, -27.872851246320593]}}, {"type": "Feature", "properties": {"norad_id": 42990, "name": "SKYSAT-C8", "group": "resource", "lat": 70.27689973880152, "lon": -35.64817452354921, "alt_km": 460.63521187719925, "timestamp": "2025-12-18T23:35:48.704749+00:00", "meta": {"OBJECT_NAME": "SKYSAT-C8", "OBJECT_ID": "2017-068D", "EPOCH": "2025-12-18T07:27:39.620736", "MEAN_MOTION": 15.33042417, "ECCENTRICITY": 0.00011975, "INCLINATION": 97.4281, "RA_OF_ASC_NODE": 122.3354, "ARG_OF_PERICENTER": 319.9012, "MEAN_ANOMALY": 40.2141, "EPHEMERIS_TYPE": 0, "CLASSIFICATION_TYPE": "U", "NORAD_CAT_ID": 42990, "ELEMENT_SET_NO": 999, "REV_AT_EPOCH": 45456, "BSTAR": 0.00033207669, "MEAN_MOTION_DOT": 0.00010524, "MEAN_MOTION_DDOT": 0}, "tle": {"line1": "1 42990U 17068D   25352.31087524  .00010524  00000+0  33208-3 0  9993", "line2": "2 42990  97.4281 122.3354 0001197 319.9012  40.2141 15.33042417454566"}}, "geometry": {"type": "Point", "coordinates": [-35.64817452354921, 70.27689973880152]}}, {"type": "Feature", "properties": {"norad_id": 42991, "name": "SKYSAT-C7", "group": "resource", "lat": -49.29824641974548, "lon": 132.77125869415153, "alt_km": 475.19858301667136, "timestamp": "2025-12-18T23:35:48.704759+00:00", "meta": {"OBJECT_NAME": "SKYSAT-C7", "OBJECT_ID": "2017-068E", "EPOCH": "2025-12-18T08:08:33.561312", "MEAN_MOTION": 15.32443509, "ECCENTRICITY": 0.0007279, "INCLINATION": 97.4288, "RA_OF_ASC_NODE": 123.4003, "ARG_OF_PERICENTER": 39.9988, "MEAN_ANOMALY": 320.1789, "EPHEMERIS_TYPE": 0, "CLASSIFICATION_TYPE": "U", "NORAD_CAT_ID": 42991, "ELEMENT_SET_NO": 999, "REV_AT_EPOCH": 45463, "BSTAR": 0.00031137237, "MEAN_MOTION_DOT": 9.685e-05, "MEAN_MOTION_DDOT": 0}, "tle": {"line1": "1 42991U 17068E   25352.33927733  .00009685  00000+0  31137-3 0  9996", "line2": "2 42991  97.4288 123.4003 0007279  39.9988 320.1789 15.32443509454637"}}, "geometry": {"type": "Point", "coordinates": [132.77125869415153, -49.29824641974548]}}, {"type": "Feature", "properties": {"norad_id": 42992, "name": "SKYSAT-C6", "group": "resource", "lat": 47.763102782941544, "lon": 116.21361551501502, "alt_km": 463.4785611156558, "timestamp": "2025-12-18T23:35:48.704770+00:00", "meta": {"OBJECT_NAME": "SKYSAT-C6", "OBJECT_ID": "2017-068F", "EPOCH": "2025-12-18T07:42:25.013376", "MEAN_MOTION": 15.31602742, "ECCENTRICITY": 0.0005057, "INCLINATION": 97.4321, "RA_OF_ASC_NODE": 123.8163, "ARG_OF_PERICENTER": 67.4152, "MEAN_ANOMALY": 292.7624, "EPHEMERIS_TYPE": 0, "CLASSIFICATION_TYPE": "U", "NORAD_CAT_ID": 42992, "ELEMENT_SET_NO": 999, "REV_AT_EPOCH": 45461, "BSTAR": 0.00032230712, "MEAN_MOTION_DOT": 9.763e-05, "MEAN_MOTION_DDOT": 0}, "tle": {"line1": "1 42992U 17068F   25352.32112284  .00009763  00000+0  32231-3 0  9996", "line2": "2 42992  97.4321 123.8163 0005057  67.4152 292.7624 15.31602742454613"}}, "geometry": {"type": "Point", "coordinates": [116.21361551501502, 47.763102782941544]}}, {"type": "Feature", "properties": {"norad_id": 43111, "name": "CARTOSAT-2F", "group": "resource", "lat": -58.9168076106177, "lon": -141.98389717034706, "alt_km": 516.0248524402386, "timestamp": "2025-12-18T23:35:48.704780+00:00", "meta": {"OBJECT_NAME": "CARTOSAT-2F", "OBJECT_ID": "2018-004A", "EPOCH": "2025-12-18T14:38:27.890592", "MEAN_MOTION": 15.19179725, "ECCENTRICITY": 0.0001286, "INCLINATION": 97.4312, "RA_OF_ASC_NODE": 50.1533, "ARG_OF_PERICENTER": 111.9235, "MEAN_ANOMALY": 248.2137, "EPHEMERIS_TYPE": 0, "CLASSIFICATION_TYPE": "U", "NORAD_CAT_ID": 43111, "ELEMENT_SET_NO": 999, "REV_AT_EPOCH": 43991, "BSTAR": 0.00017648, "MEAN_MOTION_DOT": 3.644e-05, "MEAN_MOTION_DDOT": 0}, "tle": {"line1": "1 43111U 18004A   25352.61004503  .00003644  00000+0  17648-3 0  9994", "line2": "2 43111  97.4312  50.1533 0001286 111.9235 248.2137 15.19179725439914"}}, "geometry": {"type": "Point", "coordinates": [-141.98389717034706, -58.9168076106177]}}, {"type": "Feature", "properties": {"norad_id": 43259, "name": "GAOFEN-1 02", "group": "resource", "lat": 54.938228776431046, "lon": -117.54573031625708, "alt_km": 634.8812184803674, "timestamp": "2025-12-18T23:35:48.704790+00:00", "meta": {"OBJECT_NAME": "GAOFEN-1 02", "OBJECT_ID": "2018-031A", "EPOCH": "2025-12-18T14:54:13.051296", "MEAN_MOTION": 14.76428645, "ECCENTRICITY": 0.00021163, "INCLINATION": 98.0805, "RA_OF_ASC_NODE": 50.4128, "ARG_OF_PERICENTER": 194.6393, "MEAN_ANOMALY": 165.4756, "EPHEMERIS_TYPE": 0, "CLASSIFICATION_TYPE": "U", "NORAD_CAT_ID": 43259, "ELEMENT_SET_NO": 999, "REV_AT_EPOCH": 41605, "BSTAR": 0.00014677912, "MEAN_MOTION_DOT": 9.69e-06, "MEAN_MOTION_DDOT": 0}, "tle": {"line1": "1 43259U 18031A   25352.62098439  .00000969  00000+0  14678-3 0  9996", "line2": "2 43259  98.0805  50.4128 0002116 194.6393 165.4756 14.76428645416057"}}, "geometry": {"type": "Point", "coordinates": [-117.54573031625708, 54.938228776431046]}}, {"type": "Feature", "properties": {"norad_id": 43260, "name": "GAOFEN-1 03", "group": "resource", "lat": -58.93179497379146, "lon": -142.9857782704924, "alt_km": 646.9079188699243, "timestamp": "2025-12-18T23:35:48.704800+00:00", "meta": {"OBJECT_NAME": "GAOFEN-1 03", "OBJECT_ID": "2018-031B", "EPOCH": "2025-12-18T14:22:52.133664", "MEAN_MOTION": 14.76448882, "ECCENTRICITY": 0.0001745, "INCLINATION": 98.0791, "RA_OF_ASC_NODE": 50.2669, "ARG_OF_PERICENTER": 292.1425, "MEAN_ANOMALY": 67.9599, "EPHEMERIS_TYPE": 0, "CLASSIFICATION_TYPE": "U", "NORAD_CAT_ID": 43260, "ELEMENT_SET_NO": 999, "REV_AT_EPOCH": 41604, "BSTAR": 0.00011473262, "MEAN_MOTION_DOT": 7.46e-06, "MEAN_MOTION_DDOT": 0}, "tle": {"line1": "1 43260U 18031B   25352.59921451  .00000746  00000+0  11473-3 0  9996", "line2": "2 43260  98.0791  50.2669 0001745 292.1425  67.9599 14.76448882416043"}}, "geometry": {"type": "Point", "coordinates": [-142.9857782704924, -58.93179497379146]}}, {"type": "Feature", "properties": {"norad_id": 43262, "name": "GAOFEN-1 04", "group": "resource", "lat": 9.30196958227788, "lon": 49.488233841196234, "alt_km": 641.8651855804719, "timestamp": "2025-12-18T23:35:48.704810+00:00", "meta": {"OBJECT_NAME": "GAOFEN-1 04", "OBJECT_ID": "2018-031D", "EPOCH": "2025-12-18T15:25:19.114176", "MEAN_MOTION": 14.7646104, "ECCENTRICITY": 8.427e-05, "INCLINATION": 98.0807, "RA_OF_ASC_NODE": 50.4809, "ARG_OF_PERICENTER": 61.7286, "MEAN_ANOMALY": 298.4008, "EPHEMERIS_TYPE": 0, "CLASSIFICATION_TYPE": "U", "NORAD_CAT_ID": 43262, "ELEMENT_SET_NO": 999, "REV_AT_EPOCH": 41604, "BSTAR": 7.1306338e-05, "MEAN_MOTION_DOT": 4.44e-06, "MEAN_MOTION_DDOT": 0}, "tle": {"line1": "1 43262U 18031D   25352.64258234  .00000444  00000+0  71306-4 0  9993", "line2": "2 43262  98.0807  50.4809 0000842  61.7286 298.4008 14.76461040416040"}}, "geometry": {"type": "Point", "coordinates": [49.488233841196234, 9.30196958227788]}}]}